[{"OBJECT_NAME":"TACSAT 6","OBJECT_ID":"2013-072M","EPOCH":"2026-03-09T21:48:18.118656","MEAN_MOTION":15.49411177,"ECCENTRICITY":0.00679094,"INCLINATION":120.4689,"RA_OF_ASC_NODE":89.7096,"ARG_OF_PERICENTER":302.5067,"MEAN_ANOMALY":56.9471,"EPHEMERIS_TYPE":0,"CLASSIFICATION_TYPE":"U","NORAD_CAT_ID":39473,"ELEMENT_SET_NO":999,"REV_AT_EPOCH":10391,"BSTAR":0.0009916056,"MEAN_MOTION_DOT":0.00060565,"MEAN_MOTION_DDOT":0},{"OBJECT_NAME":"TAURUS R\/B","OBJECT_ID":"2000-014B","EPOCH":"2026-03-09T17:34:52.155840","MEAN_MOTION":15.39389421,"ECCENTRICITY":0.00149672,"INCLINATION":97.4179,"RA_OF_ASC_NODE":3.0855,"ARG_OF_PERICENTER":325.8693,"MEAN_ANOMALY":34.1589,"EPHEMERIS_TYPE":0,"CLASSIFICATION_TYPE":"U","NORAD_CAT_ID":26103,"ELEMENT_SET_NO":999,"REV_AT_EPOCH":43012,"BSTAR":0.00036037476,"MEAN_MOTION_DOT":0.0001407,"MEAN_MOTION_DDOT":0}]
